{
  "type": "FeatureCollection",
  "features": [
    {
      "type": "Feature",
      "properties": {
        "norad_id": 66543,
        "name": "STARLINK-35315",
        "group": "last-30-days",
        "lat": 21.984244253794273,
        "lon": -176.59878950579287,
        "alt_km": 412.364681658245,
        "timestamp": "2025-12-16T23:36:34.922508+00:00",
        "meta_object_name": "STARLINK-35315",
        "meta_object_id": "2025-265AD",
        "meta_epoch": "2025-12-15T20:41:50.592768",
        "meta_mean_motion": 15.50477986,
        "meta_eccentricity": 0.00021484,
        "meta_inclination": 43.002,
        "meta_ra_of_asc_node": 35.6314,
        "meta_arg_of_pericenter": 30.7647,
        "meta_mean_anomaly": 329.3339,
        "meta_ephemeris_type": 0,
        "meta_classification_type": "U",
        "meta_norad_cat_id": 66543,
        "meta_element_set_no": 999,
        "meta_rev_at_epoch": 424,
        "meta_bstar": -0.00014518767,
        "meta_mean_motion_dot": -8.82e-05,
        "meta_mean_motion_ddot": 0,
        "tle_line1": "1 66543U 25265AD  25349.86239112 -.00008820  00000+0 -14519-3 0  9991",
        "tle_line2": "2 66543  43.0020  35.6314 0002148  30.7647 329.3339 15.50477986  4243"
      },
      "geometry": {
        "type": "Point",
        "coordinates": [
          -176.59878950579287,
          21.984244253794273
        ]
      }
    },
    {
      "type": "Feature",
      "properties": {
        "norad_id": 66544,
        "name": "STARLINK-35728",
        "group": "last-30-days",
        "lat": 20.25816333053745,
        "lon": -174.2676531605672,
        "alt_km": 411.72250725150934,
        "timestamp": "2025-12-16T23:36:34.922518+00:00",
        "meta_object_name": "STARLINK-35728",
        "meta_object_id": "2025-265AE",
        "meta_epoch": "2025-12-16T02:52:19.011936",
        "meta_mean_motion": 15.50615488,
        "meta_eccentricity": 0.00010134,
        "meta_inclination": 43.0001,
        "meta_ra_of_asc_node": 34.1212,
        "meta_arg_of_pericenter": 252.2214,
        "meta_mean_anomaly": 107.8535,
        "meta_ephemeris_type": 0,
        "meta_classification_type": "U",
        "meta_norad_cat_id": 66544,
        "meta_element_set_no": 999,
        "meta_rev_at_epoch": 428,
        "meta_bstar": 0.00074383437,
        "meta_mean_motion_dot": 0.00043595,
        "meta_mean_motion_ddot": 0,
        "tle_line1": "1 66544U 25265AE  25350.11966449  .00043595  00000+0  74383-3 0  9993",
        "tle_line2": "2 66544  43.0001  34.1212 0001013 252.2214 107.8535 15.50615488  4287"
      },
      "geometry": {
        "type": "Point",
        "coordinates": [
          -174.2676531605672,
          20.25816333053745
        ]
      }
    },
    {
      "type": "Feature",
      "properties": {
        "norad_id": 66545,
        "name": "SHIJIAN-30A",
        "group": "last-30-days",
        "lat": 27.047499896084204,
        "lon": -23.312523799693025,
        "alt_km": 507.8228929493798,
        "timestamp": "2025-12-16T23:36:34.922529+00:00",
        "meta_object_name": "SHIJIAN-30A",
        "meta_object_id": "2025-266A",
        "meta_epoch": "2025-12-16T15:32:30.281280",
        "meta_mean_motion": 15.15538105,
        "meta_eccentricity": 0.0012987,
        "meta_inclination": 51.7988,
        "meta_ra_of_asc_node": 314.5549,
        "meta_arg_of_pericenter": 10.384,
        "meta_mean_anomaly": 349.7403,
        "meta_ephemeris_type": 0,
        "meta_classification_type": "U",
        "meta_norad_cat_id": 66545,
        "meta_element_set_no": 999,
        "meta_rev_at_epoch": 417,
        "meta_bstar": 0.00052479,
        "meta_mean_motion_dot": 9.795e-05,
        "meta_mean_motion_ddot": 0,
        "tle_line1": "1 66545U 25266A   25350.64757270  .00009795  00000+0  52479-3 0  9999",
        "tle_line2": "2 66545  51.7988 314.5549 0012987  10.3840 349.7403 15.15538105  4176"
      },
      "geometry": {
        "type": "Point",
        "coordinates": [
          -23.312523799693025,
          27.047499896084204
        ]
      }
    },
    {
      "type": "Feature",
      "properties": {
        "norad_id": 66546,
        "name": "SHIJIAN-30B",
        "group": "last-30-days",
        "lat": 22.17497881497825,
        "lon": -28.28846946997114,
        "alt_km": 509.6991379591527,
        "timestamp": "2025-12-16T23:36:34.922540+00:00",
        "meta_object_name": "SHIJIAN-30B",
        "meta_object_id": "2025-266B",
        "meta_epoch": "2025-12-16T12:24:19.701216",
        "meta_mean_motion": 15.15512378,
        "meta_eccentricity": 0.0010703,
        "meta_inclination": 51.7971,
        "meta_ra_of_asc_node": 315.1764,
        "meta_arg_of_pericenter": 13.2697,
        "meta_mean_anomaly": 346.8559,
        "meta_ephemeris_type": 0,
        "meta_classification_type": "U",
        "meta_norad_cat_id": 66546,
        "meta_element_set_no": 999,
        "meta_rev_at_epoch": 415,
        "meta_bstar": 0.00056654,
        "meta_mean_motion_dot": 0.00010587,
        "meta_mean_motion_ddot": 0,
        "tle_line1": "1 66546U 25266B   25350.51689469  .00010587  00000+0  56654-3 0  9990",
        "tle_line2": "2 66546  51.7971 315.1764 0010703  13.2697 346.8559 15.15512378  4153"
      },
      "geometry": {
        "type": "Point",
        "coordinates": [
          -28.28846946997114,
          22.17497881497825
        ]
      }
    },
    {
      "type": "Feature",
      "properties": {
        "norad_id": 66547,
        "name": "SHIJIAN-30C",
        "group": "last-30-days",
        "lat": 19.917842882270673,
        "lon": -30.42285364456326,
        "alt_km": 509.84986777382437,
        "timestamp": "2025-12-16T23:36:34.922551+00:00",
        "meta_object_name": "SHIJIAN-30C",
        "meta_object_id": "2025-266C",
        "meta_epoch": "2025-12-16T15:35:01.178016",
        "meta_mean_motion": 15.15460447,
        "meta_eccentricity": 0.0011576,
        "meta_inclination": 51.7982,
        "meta_ra_of_asc_node": 314.5641,
        "meta_arg_of_pericenter": 5.4373,
        "meta_mean_anomaly": 354.6727,
        "meta_ephemeris_type": 0,
        "meta_classification_type": "U",
        "meta_norad_cat_id": 66547,
        "meta_element_set_no": 999,
        "meta_rev_at_epoch": 417,
        "meta_bstar": 0.00053164,
        "meta_mean_motion_dot": 9.902e-05,
        "meta_mean_motion_ddot": 0,
        "tle_line1": "1 66547U 25266C   25350.64931919  .00009902  00000+0  53164-3 0  9997",
        "tle_line2": "2 66547  51.7982 314.5641 0011576   5.4373 354.6727 15.15460447  4171"
      },
      "geometry": {
        "type": "Point",
        "coordinates": [
          -30.42285364456326,
          19.917842882270673
        ]
      }
    },
    {
      "type": "Feature",
      "properties": {
        "norad_id": 66548,
        "name": "CZ-2C R/B",
        "group": "last-30-days",
        "lat": 26.582541433525385,
        "lon": -25.95964534880714,
        "alt_km": 522.8629523008667,
        "timestamp": "2025-12-16T23:36:34.922562+00:00",
        "meta_object_name": "CZ-2C R/B",
        "meta_object_id": "2025-266D",
        "meta_epoch": "2025-12-16T07:46:59.273760",
        "meta_mean_motion": 15.30255148,
        "meta_eccentricity": 0.00837621,
        "meta_inclination": 52.0545,
        "meta_ra_of_asc_node": 314.2012,
        "meta_arg_of_pericenter": 185.4346,
        "meta_mean_anomaly": 174.574,
        "meta_ephemeris_type": 0,
        "meta_classification_type": "U",
        "meta_norad_cat_id": 66548,
        "meta_element_set_no": 999,
        "meta_rev_at_epoch": 416,
        "meta_bstar": 0.00027930663,
        "meta_mean_motion_dot": 8.836e-05,
        "meta_mean_motion_ddot": 0,
        "tle_line1": "1 66548U 25266D   25350.32429715  .00008836  00000+0  27931-3 0  9997",
        "tle_line2": "2 66548  52.0545 314.2012 0083762 185.4346 174.5740 15.30255148  4165"
      },
      "geometry": {
        "type": "Point",
        "coordinates": [
          -25.95964534880714,
          26.582541433525385
        ]
      }
    },
    {
      "type": "Feature",
      "properties": {
        "norad_id": 66549,
        "name": "SHIJIAN-28",
        "group": "last-30-days",
        "lat": -4.918022752840948,
        "lon": -163.1155972129975,
        "alt_km": 35790.52634702299,
        "timestamp": "2025-12-16T23:36:34.922579+00:00",
        "meta_object_name": "SHIJIAN-28",
        "meta_object_id": "2025-277A",
        "meta_epoch": "2025-12-16T17:25:21.557280",
        "meta_mean_motion": 1.00270392,
        "meta_eccentricity": 9.64e-05,
        "meta_inclination": 5.0087,
        "meta_ra_of_asc_node": 274.8943,
        "meta_arg_of_pericenter": 136.0381,
        "meta_mean_anomaly": 52.8688,
        "meta_ephemeris_type": 0,
        "meta_classification_type": "U",
        "meta_norad_cat_id": 66549,
        "meta_element_set_no": 999,
        "meta_rev_at_epoch": 32,
        "meta_bstar": 0,
        "meta_mean_motion_dot": -3.31e-06,
        "meta_mean_motion_ddot": 0,
        "tle_line1": "1 66549U 25277A   25350.72594395 -.00000331  00000+0  00000+0 0  9998",
        "tle_line2": "2 66549   5.0087 274.8943 0000964 136.0381  52.8688  1.00270392   326"
      },
      "geometry": {
        "type": "Point",
        "coordinates": [
          -163.1155972129975,
          -4.918022752840948
        ]
      }
    }
  ]
}